NORAD_CAT_ID,OBJECT_NAME,OBJECT_TYPE,EPOCH,MEAN_MOTION,ECCENTRICITY,INCLINATION,RA_OF_ASC_NODE,ARG_OF_PERICENTER,MEAN_ANOMALY,BSTAR,MEAN_MOTION_DOT,MEAN_MOTION_DDOT,TLE_LINE0,TLE_LINE1,TLE_LINE2,SEMIMAJOR_AXIS,PERIOD,APOGEE,PERIGEE,DECAYED
51801.0,STARLINK-3592,PAYLOAD,2024-05-22 01:09:36,15.08850014,0.0001646,53.2187,56.8912,94.4784,265.6396,0.00047579,7.294e-05,0.0,0 STARLINK-3592,1 51801U 22017AK  24143.04834111  .00007294  00000-0  47579-3 0  9990,2 51801  53.2187  56.8912 0001646  94.4784 265.6396 15.08850014124799,6917.85,95.437,540.853,538.576,0.0
51801.0,STARLINK-3592,PAYLOAD,2024-05-22 21:49:37,15.08843283,0.0001646,53.2185,53.0261,108.6153,251.5018,0.00010742,1.422e-05,0.0,0 STARLINK-3592,1 51801U 22017AK  24143.90946054  .00001422  00000-0  10742-3 0  9994,2 51801  53.2185  53.0261 0001646 108.6153 251.5018 15.08843283124921,6917.87,95.437,540.874,538.597,0.0
51801.0,STARLINK-3592,PAYLOAD,2024-05-23 01:00:23,15.08843297,0.0001506,53.2183,52.4322,100.5628,259.5534,9.096e-05,1.16e-05,0.0,0 STARLINK-3592,1 51801U 22017AK  24144.04194072  .00001160  00000-0  90960-4 0  9995,2 51801  53.2183  52.4322 0001506 100.5628 259.5534 15.08843297124941,6917.87,95.437,540.777,538.693,0.0
51801.0,STARLINK-3592,PAYLOAD,2024-05-23 21:40:24,15.08836326,0.0001484,53.2182,48.5663,82.6664,277.4497,-6.3417e-05,-1.297e-05,0.0,0 STARLINK-3592,1 51801U 22017AK  24144.90306605 -.00001297  00000-0 -63417-4 0  9997,2 51801  53.2182  48.5663 0001484  82.6664 277.4497 15.08836326125076,6917.892,95.438,540.783,538.73,0.0
51801.0,STARLINK-3592,PAYLOAD,2024-05-24 02:26:33,15.08847756,0.0001539,53.2186,47.6753,86.6807,273.4361,0.00011065,1.474e-05,0.0,0 STARLINK-3592,1 51801U 22017AK  24145.10178093  .00001474  00000-0  11065-3 0  9994,2 51801  53.2186  47.6753 0001539  86.6807 273.4361 15.08847756125103,6917.857,95.437,540.786,538.657,0.0
51801.0,STARLINK-3592,PAYLOAD,2024-05-24 21:31:11,15.08840248,0.0001765,53.2186,44.1064,85.6702,274.4491,-2.7104e-05,-7.19e-06,0.0,0 STARLINK-3592,1 51801U 22017AK  24145.89666610 -.00000719  00000-0 -27104-4 0  9992,2 51801  53.2186  44.1064 0001765  85.6702 274.4491 15.08840248125221,6917.88,95.438,540.966,538.524,0.0
51801.0,STARLINK-3592,PAYLOAD,2024-05-25 02:17:21,15.08845874,0.0001498,53.2178,43.2147,82.1977,277.9185,0.00021075,3.068e-05,0.0,0 STARLINK-3592,1 51801U 22017AK  24146.09538305  .00003068  00000-0  21075-3 0  9992,2 51801  53.2178  43.2147 0001498  82.1977 277.9185 15.08845874125254,6917.862,95.437,540.764,538.691,0.0
51801.0,STARLINK-3592,PAYLOAD,2024-05-25 10:14:17,15.08834583,0.0001259,53.2174,41.7298,106.2683,253.8448,3.7434e-05,3.08e-06,0.0,0 STARLINK-3592,1 51801U 22017AK  24146.42658796  .00000308  00000-0  37434-4 0  9997,2 51801  53.2174  41.7298 0001259 106.2683 253.8448 15.08834583125303,6917.897,95.438,540.633,538.891,0.0
51801.0,STARLINK-3592,PAYLOAD,2024-05-26 00:32:45,15.08845841,0.0001366,53.2176,39.0549,104.1241,255.9903,8.2352e-05,1.023e-05,0.0,0 STARLINK-3592,1 51801U 22017AK  24147.02274650  .00001023  00000-0  82352-4 0  9991,2 51801  53.2176  39.0549 0001366 104.1241 255.9903 15.08845841125397,6917.863,95.437,540.673,538.783,0.0
51801.0,STARLINK-3592,PAYLOAD,2024-05-26 16:26:36,15.08843404,0.0001246,53.2177,36.081,88.5356,271.5779,0.00015082,2.113e-05,0.0,0 STARLINK-3592,1 51801U 22017AK  24147.68514832  .00002113  00000-0  15082-3 0  9998,2 51801  53.2177  36.0810 0001246  88.5356 271.5779 15.08843404125494,6917.87,95.437,540.597,538.873,0.0
51801.0,STARLINK-3592,PAYLOAD,2024-05-26 22:48:08,15.08851439,0.0001235,53.2171,34.8926,92.7326,267.3808,0.00017359,2.477e-05,0.0,0 STARLINK-3592,1 51801U 22017AK  24147.95010333  .00002477  00000-0  17359-3 0  9997,2 51801  53.2171  34.8926 0001235  92.7326 267.3808 15.08851439125532,6917.845,95.437,540.565,538.856,0.0
51801.0,STARLINK-3592,PAYLOAD,2024-05-27 01:58:54,15.08857556,0.0001318,53.2172,34.2957,104.4766,255.6372,0.00026599,3.95e-05,0.0,0 STARLINK-3592,1 51801U 22017AK  24148.08257931  .00003950  00000-0  26599-3 0  9992,2 51801  53.2172  34.2957 0001318 104.4766 255.6372 15.08857556125556,6917.827,95.436,540.603,538.78,0.0
51801.0,STARLINK-3592,PAYLOAD,2024-05-27 09:55:50,15.08859921,0.0001352,53.2172,32.8088,97.8853,262.2293,0.00028459,4.247e-05,0.0,0 STARLINK-3592,1 51801U 22017AK  24148.41377607  .00004247  00000-0  28459-3 0  9999,2 51801  53.2172  32.8088 0001352  97.8853 262.2293 15.08859921125605,6917.819,95.436,540.62,538.749,0.0
51801.0,STARLINK-3592,PAYLOAD,2024-05-27 19:28:09,15.08845813,0.0002105,53.217,31.0225,122.9346,237.1849,9.2489e-05,1.184e-05,0.0,0 STARLINK-3592,1 51801U 22017AK  24148.81122367  .00001184  00000-0  92489-4 0  9996,2 51801  53.2170  31.0225 0002105 122.9346 237.1849 15.08845813125660,6917.863,95.437,541.184,538.271,0.0
51801.0,STARLINK-3592,PAYLOAD,2024-05-27 22:38:56,15.08843924,0.0001493,53.2177,30.4334,80.2803,279.8358,9.3543e-05,1.201e-05,0.0,0 STARLINK-3592,1 51801U 22017AK  24148.94370753  .00001201  00000-0  93543-4 0  9996,2 51801  53.2177  30.4334 0001493  80.2803 279.8358 15.08843924125685,6917.868,95.437,540.766,538.701,0.0
51801.0,STARLINK-3592,PAYLOAD,2024-05-28 22:29:43,15.08845911,0.0001403,53.2179,25.9698,95.3679,264.7473,1.1838e-05,-1e-06,0.0,0 STARLINK-3592,1 51801U 22017AK  24149.93730389 -.00000100  00000-0  11838-4 0  9996,2 51801  53.2179  25.9698 0001403  95.3679 264.7473 15.08845911125834,6917.862,95.437,540.698,538.757,0.0
51801.0,STARLINK-3592,PAYLOAD,2024-05-29 20:45:07,15.08837819,0.0001501,53.2181,21.8085,98.6254,261.4908,6.1424e-05,6.9e-06,0.0,0 STARLINK-3592,1 51801U 22017AK  24150.86466954  .00000690  00000-0  61424-4 0  9993,2 51801  53.2181  21.8085 0001501  98.6254 261.4908 15.08837819125976,6917.887,95.438,540.79,538.714,0.0
51801.0,STARLINK-3592,PAYLOAD,2024-05-29 22:20:30,15.08838499,0.00015,53.2189,21.5117,101.4416,258.6744,8.3718e-05,1.045e-05,0.0,0 STARLINK-3592,1 51801U 22017AK  24150.93090981  .00001045  00000-0  83718-4 0  9999,2 51801  53.2189  21.5117 0001500 101.4416 258.6744 15.08838499125981,6917.885,95.438,540.788,538.712,0.0
51801.0,STARLINK-3592,PAYLOAD,2024-05-30 20:35:54,15.0884646,0.0001521,53.219,17.3503,103.1042,257.012,0.00016636,2.361e-05,0.0,0 STARLINK-3592,1 51801U 22017AK  24151.85826443  .00002361  00000-0  16636-3 0  9997,2 51801  53.2190  17.3503 0001521 103.1042 257.0120 15.08846460126127,6917.861,95.437,540.778,538.673,0.0
51801.0,STARLINK-3592,PAYLOAD,2024-05-30 22:11:17,15.08847126,0.0001551,53.2191,17.053,104.5867,255.5298,0.0001723,2.456e-05,0.0,0 STARLINK-3592,1 51801U 22017AK  24151.92450379  .00002456  00000-0  17230-3 0  9992,2 51801  53.2191  17.0530 0001551 104.5867 255.5298 15.08847126126138,6917.859,95.437,540.797,538.651,0.0
51801.0,STARLINK-3592,PAYLOAD,2024-05-31 14:05:08,15.08848189,0.0001557,53.2186,14.0822,102.7578,257.3588,0.0001697,2.414e-05,0.0,0 STARLINK-3592,1 51801U 22017AK  24152.58690307  .00002414  00000-0  16970-3 0  9996,2 51801  53.2186  14.0822 0001557 102.7578 257.3588 15.08848189126231,6917.855,95.437,540.797,538.643,0.0
51801.0,STARLINK-3592,PAYLOAD,2024-05-31 20:26:41,15.08843388,0.0001455,53.218,12.8887,96.9275,263.1882,7.6461e-05,9.29e-06,0.0,0 STARLINK-3592,1 51801U 22017AK  24152.85186510  .00000929  00000-0  76461-4 0  9993,2 51801  53.2180  12.8887 0001455  96.9275 263.1882 15.08843388126279,6917.87,95.437,540.742,538.728,0.0
51801.0,STARLINK-3592,PAYLOAD,2024-05-31 22:02:04,15.08829793,0.0001517,53.2188,12.5915,101.7462,258.37,0.0003766,5.709e-05,0.0,0 STARLINK-3592,1 51801U 22017AK  24152.91810945  .00005709  00000-0  37660-3 0  9994,2 51801  53.2188  12.5915 0001517 101.7462 258.3700 15.08829793126288,6917.912,95.438,540.826,538.727,0.0
51801.0,STARLINK-3592,PAYLOAD,2024-06-01 07:34:22,15.08844032,0.0001557,53.2187,10.8062,90.2192,269.8979,6.2241e-05,7.03e-06,0.0,0 STARLINK-3592,1 51801U 22017AK  24153.31554381  .00000703  00000-0  62241-4 0  9991,2 51801  53.2187  10.8062 0001557  90.2192 269.8979 15.08844032126342,6917.868,95.437,540.81,538.656,0.0
51801.0,STARLINK-3592,PAYLOAD,2024-06-01 21:52:51,15.08856623,0.0001601,53.2196,8.1293,82.7342,277.3832,-0.00019077,-3.324e-05,0.0,0 STARLINK-3592,1 51801U 22017AK  24153.91170359 -.00003324  00000-0 -19077-3 0  9998,2 51801  53.2196   8.1293 0001601  82.7342 277.3832 15.08856623126432,6917.83,95.437,540.802,538.587,0.0
51801.0,STARLINK-3592,PAYLOAD,2024-06-02 09:00:33,15.08837416,0.0001404,53.2182,6.0479,89.1785,270.9368,3.6159e-05,2.88e-06,0.0,0 STARLINK-3592,1 51801U 22017AK  24154.37539076  .00000288  00000-0  36159-4 0  9999,2 51801  53.2182   6.0479 0001404  89.1785 270.9368 15.08837416126503,6917.888,95.438,540.725,538.782,0.0
51801.0,STARLINK-3592,PAYLOAD,2024-06-03 07:15:57,15.08842547,0.0001425,53.2195,1.8834,91.5034,268.6121,2.6741e-05,1.38e-06,0.0,0 STARLINK-3592,1 51801U 22017AK  24155.30274889  .00000138  00000-0  26741-4 0  9991,2 51801  53.2195   1.8834 0001425  91.5034 268.6121 15.08842547126649,6917.873,95.437,540.723,538.752,0.0
51801.0,STARLINK-3592,PAYLOAD,2024-06-03 19:59:02,15.08843236,9.45e-05,53.216,359.5019,98.5379,261.572,0.00015779,2.225e-05,0.0,0 STARLINK-3592,1 51801U 22017AK  24155.83266410  .00002225  00000-0  15779-3 0  9997,2 51801  53.2160 359.5019 0000945  98.5379 261.5720 15.08843236126726,6917.87,95.437,540.389,539.082,0.0
51801.0,STARLINK-3592,PAYLOAD,2024-06-03 23:09:48,15.0882467,0.000132,53.2158,358.9087,99.1139,261.0003,0.00053623,8.253e-05,0.0,0 STARLINK-3592,1 51801U 22017AK  24155.96514760  .00008253  00000-0  53623-3 0  9992,2 51801  53.2158 358.9087 0001320  99.1139 261.0003 15.08824670126742,6917.927,95.439,540.705,538.879,0.0
51801.0,STARLINK-3592,PAYLOAD,2024-06-04 07:06:44,15.08837357,0.0001661,53.2178,357.421,112.0482,248.0687,0.00010855,1.44e-05,0.0,0 STARLINK-3592,1 51801U 22017AK  24156.29635043  .00001440  00000-0  10855-3 0  9998,2 51801  53.2178 357.4210 0001661 112.0482 248.0687 15.08837357126794,6917.888,95.438,540.903,538.604,0.0
